IRIDIUM 116             
1 43072U 17083C   24184.57605583  .00000291  00000+0  96711-4 0  9992
2 43072  86.3959 260.6296 0002369  93.7839 266.3628 14.34218326341744
IRIDIUM 130             
1 43073U 17083D   24184.61411259 -.00000057  00000+0 -27311-4 0  9995
2 43073  86.3968 260.8196 0002247  95.0561 265.0891 14.34216799341692
IRIDIUM 151             
1 43074U 17083E   24184.58874143 -.00000007  00000+0 -94585-5 0  9990
2 43074  86.3962 260.6658 0001974  90.6889 269.4533 14.34216859341719
IRIDIUM 134             
1 43075U 17083F   24184.55702878  .00000380  00000+0  12870-3 0  9990
2 43075  86.3962 260.6776 0002462  95.5050 264.6426 14.34216896341672
IRIDIUM 137             
1 43076U 17083G   24184.56970919  .00000262  00000+0  86553-4 0  9994
2 43076  86.3963 260.7506 0002319  82.0642 278.0817 14.34219822341748
IRIDIUM 141             
1 43077U 17083H   24184.49359906  .00000417  00000+0  14177-3 0  9998
2 43077  86.3958 260.6536 0002196  98.7662 261.3783 14.34219937341737
IRIDIUM 153             
1 43078U 17083J   24184.51554300  .00000249  00000+0  81967-4 0  9992
2 43078  86.3970 229.1111 0001952 104.8850 255.2562 14.34217933342842
IRIDIUM 131             
1 43079U 17083K   24184.27161058  .00000018  00000+0 -58168-6 0  9994
2 43079  86.3966 260.8848 0002098  91.3453 268.7983 14.34217633341637
